[{"OBJECT_NAME":"STARLINK-30469","OBJECT_ID":"2023-146F","EPOCH":"2026-03-09T22:00:01.999584","MEAN_MOTION":15.08741624,"ECCENTRICITY":0.00012153,"INCLINATION":42.9999,"RA_OF_ASC_NODE":312.1219,"ARG_OF_PERICENTER":254.0494,"MEAN_ANOMALY":345.6756,"EPHEMERIS_TYPE":0,"CLASSIFICATION_TYPE":"U","NORAD_CAT_ID":57896,"ELEMENT_SET_NO":999,"REV_AT_EPOCH":578,"BSTAR":0.099451711,"MEAN_MOTION_DOT":0.01743611,"MEAN_MOTION_DDOT":0},{"OBJECT_NAME":"SITRO-AIS-61","OBJECT_ID":"2025-313BB","EPOCH":"2026-03-09T22:24:00.043776","MEAN_MOTION":15.23202528,"ECCENTRICITY":0.0008213,"INCLINATION":97.4015,"RA_OF_ASC_NODE":145.3615,"ARG_OF_PERICENTER":357.8269,"MEAN_ANOMALY":2.2931,"EPHEMERIS_TYPE":0,"CLASSIFICATION_TYPE":"U","NORAD_CAT_ID":67297,"ELEMENT_SET_NO":999,"REV_AT_EPOCH":1086,"BSTAR":0.0005465043,"MEAN_MOTION_DOT":0.0001288,"MEAN_MOTION_DDOT":0}]
